QIANFAN-49              
1 62250U 24232P   25243.22373905  .00000077  00000+0  10006-3 0  9998
2 62250  88.9946  51.6806 0015722 129.7673 230.4866 13.50958453 53863
QIANFAN-50              
1 62251U 24232Q   25243.24851074  .00000073  00000+0  94886-4 0  9994
2 62251  88.9952  51.6806 0017346 131.3472 228.9175 13.50965021 53898
QIANFAN-51              
1 62252U 24232R   25243.23205805  .00000074  00000+0  95552-4 0  9991
2 62252  88.9945  51.6825 0014766 133.9881 226.2490 13.50967459 53884
QIANFAN-52              
1 62253U 24232S   25243.26086577  .00000071  00000+0  90579-4 0  9999
2 62253  88.9942  51.5571 0016926 127.4959 232.7734 13.50961991 53971
QIANFAN-53              
1 62254U 24232T   25243.24028273  .00000083  00000+0  10995-3 0  9993
2 62254  88.9949  51.6560 0015780 128.2821 231.9752 13.50966014 53930
QIANFAN-54              
1 62255U 24232U   25243.28142260  .00000075  00000+0  97266-4 0  9999
2 62255  88.9941  51.3392 0003087 135.9973 224.1424 13.50968086 85445
QIANFAN-55              
1 62785U 25016A   25243.23317171  .00000095  00000+0  12804-3 0  9994
2 62785  88.9803 113.8999 0015741 291.5513  68.3960 13.50962083 33218
QIANFAN-56              
1 62786U 25016B   25243.24978849  .00000097  00000+0  13239-3 0  9996
2 62786  88.9775 113.7627 0014447 294.5280  65.4365 13.50961103 33264
